{"type": "FeatureCollection", "features": [ {"type": "Feature", "properties": {"norad_id": 66957, "name": "HULIANWANG DIGUI-118", "group": "last-30-days", "lat": -8.110114193844126, "lon": 164.62905557891216, "alt_km": 1003.1262223850708, "timestamp": "2025-12-18T07:01:53.343051+00:00", "meta": {"OBJECT_NAME": "HULIANWANG DIGUI-118", "OBJECT_ID": "2025-287E", "EPOCH": "2025-12-17T14:19:24.841920", "MEAN_MOTION": 13.68572802, "ECCENTRICITY": 0.00077566, "INCLINATION": 86.4948, "RA_OF_ASC_NODE": 344.3824, "ARG_OF_PERICENTER": 174.8369, "MEAN_ANOMALY": 185.2872, "EPHEMERIS_TYPE": 0, "CLASSIFICATION_TYPE": "U", "NORAD_CAT_ID": 66957, "ELEMENT_SET_NO": 999, "REV_AT_EPOCH": 119, "BSTAR": 0.00015194853, "MEAN_MOTION_DOT": 1.47e-06, "MEAN_MOTION_DDOT": 0}, "tle": {"line1": "1 66957U 25287E   25351.59681530  .00000147  00000+0  15195-3 0  9995", "line2": "2 66957  86.4948 344.3824 0007756 174.8369 185.2872 13.68572802  1191"}}, "geometry": {"type": "Point", "coordinates": [164.62905557891216, -8.110114193844126]}}, {"type": "Feature", "properties": {"norad_id": 66958, "name": "CZ-6A R/B", "group": "last-30-days", "lat": -25.548693592752183, "lon": -17.68409702512978, "alt_km": 944.3199436634659, "timestamp": "2025-12-18T07:01:53.343082+00:00", "meta": {"OBJECT_NAME": "CZ-6A R/B", "OBJECT_ID": "2025-287F", "EPOCH": "2025-12-17T20:49:29.392320", "MEAN_MOTION": 13.94920518, "ECCENTRICITY": 0.01073337, "INCLINATION": 86.5059, "RA_OF_ASC_NODE": 344.1511, "ARG_OF_PERICENTER": 86.7414, "MEAN_ANOMALY": 274.6033, "EPHEMERIS_TYPE": 0, "CLASSIFICATION_TYPE": "U", "NORAD_CAT_ID": 66958, "ELEMENT_SET_NO": 999, "REV_AT_EPOCH": 125, "BSTAR": 3.8608066e-05, "MEAN_MOTION_DOT": 7.3e-07, "MEAN_MOTION_DDOT": 0}, "tle": {"line1": "1 66958U 25287F   25351.86770130  .00000073  00000+0  38608-4 0  9994", "line2": "2 66958  86.5059 344.1511 0107333  86.7414 274.6033 13.94920518  1250"}}, "geometry": {"type": "Point", "coordinates": [-17.68409702512978, -25.548693592752183]}}, {"type": "Feature", "properties": {"norad_id": 66959, "name": "STARLINK-35887", "group": "last-30-days", "lat": -10.604897199752001, "lon": 121.61906786490579, "alt_km": 310.28647460788216, "timestamp": "2025-12-18T07:01:53.343096+00:00", "meta": {"OBJECT_NAME": "STARLINK-35887", "OBJECT_ID": "2025-288A", "EPOCH": "2025-12-16T14:00:03.000384", "MEAN_MOTION": 15.91064311, "ECCENTRICITY": 0.00016179, "INCLINATION": 43.0008, "RA_OF_ASC_NODE": 143.7995, "ARG_OF_PERICENTER": 269.3707, "MEAN_ANOMALY": 2.8159, "EPHEMERIS_TYPE": 0, "CLASSIFICATION_TYPE": "U", "NORAD_CAT_ID": 66959, "ELEMENT_SET_NO": 999, "REV_AT_EPOCH": 245, "BSTAR": -0.0037977459, "MEAN_MOTION_DOT": -0.01103717, "MEAN_MOTION_DDOT": 0}, "tle": {"line1": "1 66959U 25288A   25350.58336806 -.01103717  00000+0 -37977-2 0  9990", "line2": "2 66959  43.0008 143.7995 0001617 269.3707   2.8159 15.91064311  2456"}}, "geometry": {"type": "Point", "coordinates": [121.61906786490579, -10.604897199752001]}}, {"type": "Feature", "properties": {"norad_id": 66960, "name": "STARLINK-35879", "group": "last-30-days", "lat": -9.400457745213675, "lon": 122.97180464977312, "alt_km": 310.06908651093545, "timestamp": "2025-12-18T07:01:53.343106+00:00", "meta": {"OBJECT_NAME": "STARLINK-35879", "OBJECT_ID": "2025-288B", "EPOCH": "2025-12-16T14:00:03.000384", "MEAN_MOTION": 15.91117419, "ECCENTRICITY": 0.00016613, "INCLINATION": 43.0008, "RA_OF_ASC_NODE": 143.7955, "ARG_OF_PERICENTER": 270.1089, "MEAN_ANOMALY": 3.6197, "EPHEMERIS_TYPE": 0, "CLASSIFICATION_TYPE": "U", "NORAD_CAT_ID": 66960, "ELEMENT_SET_NO": 999, "REV_AT_EPOCH": 245, "BSTAR": -0.0038106711, "MEAN_MOTION_DOT": -0.0110978, "MEAN_MOTION_DDOT": 0}, "tle": {"line1": "1 66960U 25288B   25350.58336806 -.01109780  00000+0 -38107-2 0  9994", "line2": "2 66960  43.0008 143.7955 0001661 270.1089   3.6197 15.91117419  2455"}}, "geometry": {"type": "Point", "coordinates": [122.97180464977312, -9.400457745213675]}}, {"type": "Feature", "properties": {"norad_id": 66961, "name": "STARLINK-35761", "group": "last-30-days", "lat": -8.163660475394858, "lon": 124.34550990848237, "alt_km": 310.0689791196264, "timestamp": "2025-12-18T07:01:53.343118+00:00", "meta": {"OBJECT_NAME": "STARLINK-35761", "OBJECT_ID": "2025-288C", "EPOCH": "2025-12-16T14:00:03.000384", "MEAN_MOTION": 15.91193502, "ECCENTRICITY": 0.00016481, "INCLINATION": 43.0009, "RA_OF_ASC_NODE": 143.7913, "ARG_OF_PERICENTER": 269.4345, "MEAN_ANOMALY": 5.9922, "EPHEMERIS_TYPE": 0, "CLASSIFICATION_TYPE": "U", "NORAD_CAT_ID": 66961, "ELEMENT_SET_NO": 999, "REV_AT_EPOCH": 245, "BSTAR": -0.0039038489, "MEAN_MOTION_DOT": -0.01286068, "MEAN_MOTION_DDOT": 0.00047494021}, "tle": {"line1": "1 66961U 25288C   25350.58336806 -.01286068  47494-3 -39038-2 0  9996", "line2": "2 66961  43.0009 143.7913 0001648 269.4345   5.9922 15.91193502  2450"}}, "geometry": {"type": "Point", "coordinates": [124.34550990848237, -8.163660475394858]}}, {"type": "Feature", "properties": {"norad_id": 66962, "name": "STARLINK-35874", "group": "last-30-days", "lat": -6.406343734654678, "lon": 126.27417498593559, "alt_km": 310.1010445530774, "timestamp": "2025-12-18T07:01:53.343129+00:00", "meta": {"OBJECT_NAME": "STARLINK-35874", "OBJECT_ID": "2025-288D", "EPOCH": "2025-12-16T14:00:03.000384", "MEAN_MOTION": 15.91258062, "ECCENTRICITY": 0.00016798, "INCLINATION": 43.0009, "RA_OF_ASC_NODE": 143.7852, "ARG_OF_PERICENTER": 265.2732, "MEAN_ANOMALY": 12.5507, "EPHEMERIS_TYPE": 0, "CLASSIFICATION_TYPE": "U", "NORAD_CAT_ID": 66962, "ELEMENT_SET_NO": 999, "REV_AT_EPOCH": 245, "BSTAR": -0.0039550127, "MEAN_MOTION_DOT": -0.01307049, "MEAN_MOTION_DDOT": 0.00048952147}, "tle": {"line1": "1 66962U 25288D   25350.58336806 -.01307049  48952-3 -39550-2 0  9999", "line2": "2 66962  43.0009 143.7852 0001679 265.2732  12.5507 15.91258062  2457"}}, "geometry": {"type": "Point", "coordinates": [126.27417498593559, -6.406343734654678]}}, {"type": "Feature", "properties": {"norad_id": 66963, "name": "STARLINK-36133", "group": "last-30-days", "lat": -5.117478797876221, "lon": 127.67518652056616, "alt_km": 310.0836125304322, "timestamp": "2025-12-18T07:01:53.343138+00:00", "meta": {"OBJECT_NAME": "STARLINK-36133", "OBJECT_ID": "2025-288E", "EPOCH": "2025-12-16T14:00:03.000384", "MEAN_MOTION": 15.913225, "ECCENTRICITY": 0.0001662, "INCLINATION": 43.001, "RA_OF_ASC_NODE": 143.7809, "ARG_OF_PERICENTER": 264.2062, "MEAN_ANOMALY": 15.3668, "EPHEMERIS_TYPE": 0, "CLASSIFICATION_TYPE": "U", "NORAD_CAT_ID": 66963, "ELEMENT_SET_NO": 999, "REV_AT_EPOCH": 245, "BSTAR": -0.0040224604, "MEAN_MOTION_DOT": -0.01333473, "MEAN_MOTION_DDOT": 0.00050810595}, "tle": {"line1": "1 66963U 25288E   25350.58336806 -.01333473  50811-3 -40225-2 0  9998", "line2": "2 66963  43.0010 143.7809 0001662 264.2062  15.3668 15.91322500  2457"}}, "geometry": {"type": "Point", "coordinates": [127.67518652056616, -5.117478797876221]}}, {"type": "Feature", "properties": {"norad_id": 66964, "name": "STARLINK-36104", "group": "last-30-days", "lat": -3.73111739366927, "lon": 129.17181703668584, "alt_km": 309.9376147588064, "timestamp": "2025-12-18T07:01:53.343148+00:00", "meta": {"OBJECT_NAME": "STARLINK-36104", "OBJECT_ID": "2025-288F", "EPOCH": "2025-12-16T14:00:03.000384", "MEAN_MOTION": 15.91381929, "ECCENTRICITY": 0.00016875, "INCLINATION": 43.0012, "RA_OF_ASC_NODE": 143.776, "ARG_OF_PERICENTER": 264.1667, "MEAN_ANOMALY": 17.2313, "EPHEMERIS_TYPE": 0, "CLASSIFICATION_TYPE": "U", "NORAD_CAT_ID": 66964, "ELEMENT_SET_NO": 999, "REV_AT_EPOCH": 245, "BSTAR": -0.0040599566, "MEAN_MOTION_DOT": -0.01349864, "MEAN_MOTION_DDOT": 0.00051989801}, "tle": {"line1": "1 66964U 25288F   25350.58336806 -.01349864  51990-3 -40600-2 0  9996", "line2": "2 66964  43.0012 143.7760 0001687 264.1667  17.2313 15.91381929  2451"}}, "geometry": {"type": "Point", "coordinates": [129.17181703668584, -3.73111739366927]}}, {"type": "Feature", "properties": {"norad_id": 66965, "name": "STARLINK-36067", "group": "last-30-days", "lat": -2.4395264149961835, "lon": 130.55970677751318, "alt_km": 309.7196483855523, "timestamp": "2025-12-18T07:01:53.343158+00:00", "meta": {"OBJECT_NAME": "STARLINK-36067", "OBJECT_ID": "2025-288G", "EPOCH": "2025-12-16T14:00:03.000384", "MEAN_MOTION": 15.91459647, "ECCENTRICITY": 0.00016181, "INCLINATION": 43.0011, "RA_OF_ASC_NODE": 143.7715, "ARG_OF_PERICENTER": 269.0061, "MEAN_ANOMALY": 14.2021, "EPHEMERIS_TYPE": 0, "CLASSIFICATION_TYPE": "U", "NORAD_CAT_ID": 66965, "ELEMENT_SET_NO": 999, "REV_AT_EPOCH": 245, "BSTAR": -0.0041720134, "MEAN_MOTION_DOT": -0.01392205, "MEAN_MOTION_DDOT": 0.00055057089}, "tle": {"line1": "1 66965U 25288G   25350.58336806 -.01392205  55057-3 -41720-2 0  9996", "line2": "2 66965  43.0011 143.7715 0001618 269.0061  14.2021 15.91459647  2453"}}, "geometry": {"type": "Point", "coordinates": [130.55970677751318, -2.4395264149961835]}}, {"type": "Feature", "properties": {"norad_id": 66966, "name": "STARLINK-36139", "group": "last-30-days", "lat": -0.6754281285162703, "lon": 132.44871663836454, "alt_km": 309.73612120450525, "timestamp": "2025-12-18T07:01:53.343168+00:00", "meta": {"OBJECT_NAME": "STARLINK-36139", "OBJECT_ID": "2025-288H", "EPOCH": "2025-12-16T14:00:03.000384", "MEAN_MOTION": 15.91510909, "ECCENTRICITY": 0.00016164, "INCLINATION": 43.001, "RA_OF_ASC_NODE": 143.7657, "ARG_OF_PERICENTER": 263.363, "MEAN_ANOMALY": 22.1483, "EPHEMERIS_TYPE": 0, "CLASSIFICATION_TYPE": "U", "NORAD_CAT_ID": 66966, "ELEMENT_SET_NO": 999, "REV_AT_EPOCH": 245, "BSTAR": -0.0041716004, "MEAN_MOTION_DOT": -0.01395724, "MEAN_MOTION_DDOT": 0.0005533968}, "tle": {"line1": "1 66966U 25288H   25350.58336806 -.01395724  55340-3 -41716-2 0  9996", "line2": "2 66966  43.0010 143.7657 0001616 263.3630  22.1483 15.91510909  2454"}}, "geometry": {"type": "Point", "coordinates": [132.44871663836454, -0.6754281285162703]}}]}